NORAD_CAT_ID,OBJECT_NAME,OBJECT_TYPE,EPOCH,MEAN_MOTION,ECCENTRICITY,INCLINATION,RA_OF_ASC_NODE,ARG_OF_PERICENTER,MEAN_ANOMALY,BSTAR,MEAN_MOTION_DOT,MEAN_MOTION_DDOT,TLE_LINE0,TLE_LINE1,TLE_LINE2,SEMIMAJOR_AXIS,PERIOD,APOGEE,PERIGEE,DECAYED
53011.0,STARLINK-4265,PAYLOAD,2023-12-16 14:39:38,15.08843346,0.0001588,53.2174,138.6629,70.604,289.5124,0.0001281,1.751e-05,0.0,0 STARLINK-4265,1 53011U 22076AB  23350.61086371  .00001751  00000-0  12810-3 0  9991,2 53011  53.2174 138.6629 0001588  70.6040 289.5124 15.08843346 80087,6917.87,95.437,540.834,538.637,0.0
53011.0,STARLINK-4265,PAYLOAD,2023-12-16 17:50:24,15.08846087,0.0001734,53.2174,138.0666,62.9509,297.166,0.00015505,2.181e-05,0.0,0 STARLINK-4265,1 53011U 22076AB  23350.74334196  .00002181  00000-0  15505-3 0  9998,2 53011  53.2174 138.0666 0001734  62.9509 297.1660 15.08846087 80578,6917.862,95.437,540.926,538.527,0.0
53011.0,STARLINK-4265,PAYLOAD,2023-12-17 14:30:25,15.08846518,0.0001601,53.217,134.2019,69.2983,290.8181,0.00010742,1.422e-05,0.0,0 STARLINK-4265,1 53011U 22076AB  23351.60446138  .00001422  00000-0  10742-3 0  9999,2 53011  53.2170 134.2019 0001601  69.2983 290.8181 15.08846518 80233,6917.86,95.437,540.833,538.618,0.0
53011.0,STARLINK-4265,PAYLOAD,2023-12-17 16:05:48,15.08848944,0.0001777,53.2159,133.9092,67.6367,292.4813,0.00013036,1.788e-05,0.0,0 STARLINK-4265,1 53011U 22076AB  23351.67070016  .00001788  00000-0  13036-3 0  9998,2 53011  53.2159 133.9092 0001777  67.6367 292.4813 15.08848944 80245,6917.853,95.437,540.947,538.489,0.0
53011.0,STARLINK-4265,PAYLOAD,2023-12-18 14:21:12,15.0884784,0.0001525,53.2174,129.7412,83.7221,276.3945,1.8707e-05,1e-07,0.0,0 STARLINK-4265,1 53011U 22076AB  23352.59805861  .00000010  00000-0  18707-4 0  9992,2 53011  53.2174 129.7412 0001525  83.7221 276.3945 15.08847840 80386,6917.856,95.437,540.776,538.666,0.0
53011.0,STARLINK-4265,PAYLOAD,2023-12-18 15:56:35,15.08846387,0.0001462,53.217,129.445,79.8308,280.2849,2.9313e-06,-2.41e-06,0.0,0 STARLINK-4265,1 53011U 22076AB  23352.66429960 -.00000241  00000-0  29313-5 0  9995,2 53011  53.2170 129.4450 0001462  79.8308 280.2849 15.08846387 80868,6917.861,95.437,540.737,538.714,0.0
53011.0,STARLINK-4265,PAYLOAD,2023-12-19 14:11:59,15.08844608,0.0001285,53.2166,125.2754,88.2989,271.8151,-0.0001558,-2.767e-05,0.0,0 STARLINK-4265,1 53011U 22076AB  23353.59166498 -.00002767  00000-0 -15580-3 0  9997,2 53011  53.2166 125.2754 0001285  88.2989 271.8151 15.08844608 80536,6917.866,95.437,540.62,538.842,0.0
53011.0,STARLINK-4265,PAYLOAD,2023-12-19 15:47:23,15.08841955,0.0001324,53.2167,124.9787,87.7078,272.4065,-0.00012236,-2.235e-05,0.0,0 STARLINK-4265,1 53011U 22076AB  23353.65790541 -.00002235  00000-0 -12236-3 0  9991,2 53011  53.2167 124.9787 0001324  87.7078 272.4065 15.08841955 81013,6917.874,95.437,540.655,538.823,0.0
53011.0,STARLINK-4265,PAYLOAD,2023-12-20 14:02:47,15.0883343,0.0001345,53.2168,120.8157,83.8651,276.2494,6.2087e-05,7e-06,0.0,0 STARLINK-4265,1 53011U 22076AB  23354.58526804  .00000700  00000-0  62087-4 0  9996,2 53011  53.2168 120.8157 0001345  83.8651 276.2494 15.08833430 80686,6917.9,95.438,540.696,538.835,0.0
53011.0,STARLINK-4265,PAYLOAD,2023-12-20 15:38:10,15.08835705,0.000138,53.2172,120.519,87.9925,272.1225,8.1664e-05,1.012e-05,0.0,0 STARLINK-4265,1 53011U 22076AB  23354.65150626  .00001012  00000-0  81664-4 0  9998,2 53011  53.2172 120.5190 0001380  87.9925 272.1225 15.08835705 80698,6917.894,95.438,540.713,538.804,0.0
53011.0,STARLINK-4265,PAYLOAD,2023-12-21 12:18:11,15.08829297,0.0001356,53.2171,116.6558,86.6898,273.425,4.31e-05,3.98e-06,0.0,0 STARLINK-4265,1 53011U 22076AB  23355.51263781  .00000398  00000-0  43100-4 0  9990,2 53011  53.2171 116.6558 0001356  86.6898 273.4250 15.08829297 81297,6917.913,95.438,540.716,538.84,0.0
53011.0,STARLINK-4265,PAYLOAD,2023-12-21 13:53:34,15.08830435,0.0001392,53.2167,116.3583,85.6994,274.4157,6.075e-05,6.79e-06,0.0,0 STARLINK-4265,1 53011U 22076AB  23355.57887720  .00000679  00000-0  60750-4 0  9993,2 53011  53.2167 116.3583 0001392  85.6994 274.4157 15.08830435 80835,6917.91,95.438,540.738,538.812,0.0
53011.0,STARLINK-4265,PAYLOAD,2023-12-22 12:08:58,15.08839219,0.0001633,53.2171,112.1959,111.817,248.2996,0.00012241,1.661e-05,0.0,0 STARLINK-4265,1 53011U 22076AB  23356.50623272  .00001661  00000-0  12241-3 0  9990,2 53011  53.2171 112.1959 0001633 111.8170 248.2996 15.08839219 81444,6917.883,95.438,540.877,538.618,0.0
53011.0,STARLINK-4265,PAYLOAD,2023-12-22 13:44:21,15.08846094,0.0001432,53.2178,111.9068,99.9847,260.1306,0.00010717,1.418e-05,0.0,0 STARLINK-4265,1 53011U 22076AB  23356.57247108  .00001418  00000-0  10717-3 0  9993,2 53011  53.2178 111.9068 0001432  99.9847 260.1306 15.08846094 80988,6917.862,95.437,540.717,538.736,0.0
53011.0,STARLINK-4265,PAYLOAD,2023-12-22 15:19:43,15.08857223,0.0001209,53.2169,111.6006,106.2976,253.8149,0.00017185,2.449e-05,0.0,0 STARLINK-4265,1 53011U 22076AB  23356.63870051  .00002449  00000-0  17185-3 0  9990,2 53011  53.2169 111.6006 0001209 106.2976 253.8149 15.08857223 81468,6917.828,95.436,540.529,538.856,0.0
53011.0,STARLINK-4265,PAYLOAD,2023-12-23 11:59:45,15.08840894,0.0001552,53.2181,107.7365,91.0553,269.0617,9.1167e-05,1.163e-05,0.0,0 STARLINK-4265,1 53011U 22076AB  23357.49983570  .00001163  00000-0  91167-4 0  9991,2 53011  53.2181 107.7365 0001552  91.0553 269.0617 15.08840894 81598,6917.878,95.437,540.816,538.669,0.0
53011.0,STARLINK-4265,PAYLOAD,2023-12-23 13:35:08,15.08842685,0.0001527,53.2174,107.4387,91.5947,268.522,9.0806e-05,1.158e-05,0.0,0 STARLINK-4265,1 53011U 22076AB  23357.56607462  .00001158  00000-0  90806-4 0  9995,2 53011  53.2174 107.4387 0001527  91.5947 268.5220 15.08842685 81139,6917.872,95.437,540.794,538.681,0.0
53011.0,STARLINK-4265,PAYLOAD,2023-12-23 15:10:31,15.08844336,0.0001549,53.2172,107.1413,76.0698,284.0466,0.00010743,1.422e-05,0.0,0 STARLINK-4265,1 53011U 22076AB  23357.63231401  .00001422  00000-0  10743-3 0  9994,2 53011  53.2172 107.1413 0001549  76.0698 284.0466 15.08844336 81140,6917.867,95.437,540.804,538.661,0.0
53011.0,STARLINK-4265,PAYLOAD,2023-12-24 13:25:54,15.08858181,0.0001585,53.218,102.978,68.9757,291.1405,0.00011982,1.62e-05,0.0,0 STARLINK-4265,1 53011U 22076AB  23358.55966369  .00001620  00000-0  11982-3 0  9990,2 53011  53.2180 102.9780 0001585  68.9757 291.1405 15.08858181 81285,6917.825,95.436,540.786,538.593,0.0
53011.0,STARLINK-4265,PAYLOAD,2023-12-25 11:41:19,15.0884422,0.0001528,53.2176,98.8158,80.2977,279.8187,7.8803e-05,9.67e-06,0.0,0 STARLINK-4265,1 53011U 22076AB  23359.48703155  .00000967  00000-0  78803-4 0  9994,2 53011  53.2176  98.8158 0001528  80.2977 279.8187 15.08844220 81896,6917.867,95.437,540.79,538.675,0.0
53011.0,STARLINK-4265,PAYLOAD,2023-12-25 13:16:42,15.08843907,0.0001537,53.2176,98.5185,80.6864,279.4302,7.6241e-05,9.26e-06,0.0,0 STARLINK-4265,1 53011U 22076AB  23359.55327161  .00000926  00000-0  76241-4 0  9990,2 53011  53.2176  98.5185 0001537  80.6864 279.4302 15.08843907 81438,6917.868,95.437,540.797,538.67,0.0
53011.0,STARLINK-4265,PAYLOAD,2023-12-26 11:32:07,15.08838822,0.0001591,53.2178,94.3592,79.1031,281.014,3.0287e-06,-2.4e-06,0.0,0 STARLINK-4265,1 53011U 22076AB  23360.48063840 -.00000240  00000-0  30287-5 0  9996,2 53011  53.2178  94.3592 0001591  79.1031 281.0140 15.08838822 82042,6917.884,95.438,540.85,538.648,0.0
53011.0,STARLINK-4265,PAYLOAD,2023-12-26 13:07:30,15.08841285,0.0001689,53.2188,94.0619,92.1268,267.9917,1.4197e-05,-6.2e-07,0.0,0 STARLINK-4265,1 53011U 22076AB  23360.54687525 -.00000062  00000-0  14197-4 0  9998,2 53011  53.2188  94.0619 0001689  92.1268 267.9917 15.08841285 81585,6917.876,95.437,540.91,538.573,0.0
53011.0,STARLINK-4265,PAYLOAD,2023-12-27 12:58:17,15.08841179,0.0001567,53.2179,89.5975,106.3654,253.751,6.5792e-05,7.59e-06,0.0,0 STARLINK-4265,1 53011U 22076AB  23361.54047537  .00000759  00000-0  65792-4 0  9991,2 53011  53.2179  89.5975 0001567 106.3654 253.7510 15.08841179 81732,6917.877,95.437,540.826,538.658,0.0
53011.0,STARLINK-4265,PAYLOAD,2023-12-27 16:09:03,15.08845798,0.0001547,53.2171,88.9989,112.886,247.2295,6.0839e-05,6.81e-06,0.0,0 STARLINK-4265,1 53011U 22076AB  23361.67295162  .00000681  00000-0  60839-4 0  9995,2 53011  53.2171  88.9989 0001547 112.8860 247.2295 15.08845798 82225,6917.863,95.437,540.798,538.657,0.0
53011.0,STARLINK-4265,PAYLOAD,2023-12-28 11:13:41,15.08842158,0.0001701,53.217,85.4302,113.571,246.5461,4.7904e-05,4.74e-06,0.0,0 STARLINK-4265,1 53011U 22076AB  23362.46783636  .00000474  00000-0  47904-4 0  9999,2 53011  53.2170  85.4302 0001701 113.5710 246.5461 15.08842158 82346,6917.874,95.437,540.916,538.562,0.0
53011.0,STARLINK-4265,PAYLOAD,2023-12-29 11:04:28,15.08838081,0.0001632,53.2183,80.9732,119.3516,240.7639,-4.2154e-05,-9.59e-06,0.0,0 STARLINK-4265,1 53011U 22076AB  23363.46144386 -.00000959  00000-0 -42154-4 0  9995,2 53011  53.2183  80.9732 0001632 119.3516 240.7639 15.08838081 82497,6917.886,95.438,540.88,538.622,0.0
53011.0,STARLINK-4265,PAYLOAD,2023-12-29 12:39:52,15.08836084,0.0001094,53.2164,80.6771,90.7912,269.3206,-8.9252e-05,-1.708e-05,0.0,0 STARLINK-4265,1 53011U 22076AB  23363.52768747 -.00001708  00000-0 -89252-4 0  9998,2 53011  53.2164  80.6771 0001094  90.7912 269.3206 15.08836084 82038,6917.892,95.438,540.514,539.001,0.0
53011.0,STARLINK-4265,PAYLOAD,2023-12-30 14:06:00,15.08854097,0.0001302,53.2171,75.915,89.3956,270.7185,0.00016136,2.282e-05,0.0,0 STARLINK-4265,1 53011U 22076AB  23364.58750979  .00002282  00000-0  16136-3 0  9999,2 53011  53.2171  75.9150 0001302  89.3956 270.7185 15.08854097 82191,6917.837,95.437,540.603,538.802,0.0
53011.0,STARLINK-4265,PAYLOAD,2023-12-31 04:24:30,15.08830152,0.0001253,53.2171,73.2426,76.036,284.0772,9.7151e-05,1.258e-05,0.0,0 STARLINK-4265,1 53011U 22076AB  23365.18368730  .00001258  00000-0  97151-4 0  9995,2 53011  53.2171  73.2426 0001253  76.0360 284.0772 15.08830152 82753,6917.91,95.438,540.642,538.909,0.0
